[Satellite]
VERSION=1.1
NAME=IRIDIUM 28
NICKNAME=IRIDIUM 28
TLE1=1 24948U 97051E   22342.05629508  .00000381  00000+0  12441-3 0  9993
TLE2=2 24948  86.3978 168.3303 0001856  96.5204 263.6204 14.35975653321456
STATUS=2
